GLOBALSTAR M067         
1 32263U 07048A   25217.58096339 -.00000035  00000+0  46525-3 0  9998
2 32263  51.9708 251.4038 0001160  99.0714  68.9761 12.40675192815861
GLOBALSTAR M070         
1 32264U 07048B   25217.61257228 -.00000102  00000+0  95726-5 0  9993
2 32264  51.9777 337.9345 0000656 119.5561 253.9453 12.62320500819914
GLOBALSTAR M066         
1 32265U 07048C   25217.57467388 -.00000045  00000+0  42254-3 0  9991
2 32265  51.9570 243.9291 0004278  81.1779  92.0944 12.30181869821379
GLOBALSTAR M068         
1 32266U 07048D   25217.56389949 -.00000117  00000+0 -73104-4 0  9997
2 32266  51.9876 151.7394 0000581 262.7036 267.6113 12.62826441823798
GLOBALSTAR M079         
1 37188U 10054A   25217.51158969 -.00000100  00000+0  20953-4 0  9992
2 37188  52.0064 349.6354 0000952  87.3129 347.9013 12.62265629682684
GLOBALSTAR M074         
1 37189U 10054B   25217.53909426 -.00000108  00000+0 -22507-4 0  9993
2 37189  52.0042 348.8686 0000909 107.9471 330.7398 12.62266748683298
GLOBALSTAR M076         
1 37190U 10054C   25217.57026935 -.00000093  00000+0  59815-4 0  9998
2 37190  52.0054 348.9478 0001045  98.0091   3.1060 12.62264334683019
GLOBALSTAR M077         
1 37191U 10054D   25217.47306534 -.00000090  00000+0  76244-4 0  9996
2 37191  52.0087 306.1135 0000645 115.6839 325.8212 12.62322444683372
